SL-16 R/B               
1 22285U 92093B   25304.27063133 -.00000109  00000+0 -31564-4 0  9995
2 22285  71.0201 275.9444 0003517 178.5886 181.5248 14.15417768694840
COSMOS 2228             
1 22286U 92094A   25304.23389983  .00003495  00000+0  30489-3 0  9990
2 22286  82.5209   1.1963 0018595  22.6843 337.5197 14.96444961756697
SL-16 R/B               
1 22566U 93016B   25303.94477734 -.00000152  00000+0 -53660-4 0  9991
2 22566  71.0054 127.6829 0009673 174.2983 185.8252 14.15279671683814
COSMOS 2242             
1 22626U 93024A   25304.29588175  .00002863  00000+0  25340-3 0  9990
2 22626  82.5218  30.3967 0016996  25.2798 334.9252 14.95844181761049
SL-16 R/B               
1 22803U 93059B   25304.31216054 -.00000095  00000+0 -23267-4 0  9996
2 22803  70.9893 283.9529 0015498  41.0314 319.1972 14.17202710661203
ARIANE 40 R/B           
1 22830U 93061H   25304.15894179  .00000324  00000+0  13483-3 0  9992
2 22830  98.5127  10.4535 0009766 311.4293  48.6052 14.32760915675559
COSMOS 2278             
1 23087U 94023A   25303.88846106 -.00000044  00000+0  16973-5 0  9991
2 23087  71.0516  86.6581 0010639 235.3615 124.6505 14.14330966626453
SL-16 R/B               
1 23088U 94023B   25304.27717609  .00000138  00000+0  95680-4 0  9995
2 23088  71.0014 342.6618 0002183 180.4469 179.6653 14.14991715627781
SL-16 R/B               
1 23343U 94074B   25304.05823362  .00000702  00000+0  10124-3 0  9991
2 23343  97.7262 335.0473 0005179 287.7156 125.4341 14.79215132668086
SL-16 R/B               
1 23405U 94077B   25304.30923501 -.00000084  00000+0 -18491-4 0  9998
2 23405  70.9815 264.6739 0003458 317.7170  42.3686 14.15538240597923
ARIANE 40+ R/B          
1 23561U 95021B   25304.20234377  .00000428  00000+0  15075-3 0  9990
2 23561  98.4700  12.2955 0007166 161.5084 259.9619 14.39644540600610
SL-16 R/B               
1 23705U 95058B   25303.81513618  .00000343  00000+0  19963-3 0  9990
2 23705  71.0197  92.9204 0014118 311.1636  48.8269 14.15470295549470
