CCSDS_OMM_VERS = 2.0
CREATION_DATE  = 
ORIGINATOR     = 

OBJECT_NAME    = SL-16 R/B
OBJECT_ID      = 1992-093B
CENTER_NAME    = EARTH
REF_FRAME      = TEME
TIME_SYSTEM    = UTC
MEAN_ELEMENT_THEORY = SGP/SGP4

EPOCH          = 2025-10-31T06:29:42.546912
MEAN_MOTION    = 14.15417768
ECCENTRICITY   = .00035171
INCLINATION    = 71.0201
RA_OF_ASC_NODE = 275.9444
ARG_OF_PERICENTER = 178.5886
MEAN_ANOMALY   = 181.5248

EPHEMERIS_TYPE = 0
CLASSIFICATION_TYPE = U
NORAD_CAT_ID   = 22285
ELEMENT_SET_NO = 999
REV_AT_EPOCH   = 69484
BSTAR          = -.31564316E-4
MEAN_MOTION_DOT = -.109E-5
MEAN_MOTION_DDOT = 0

CCSDS_OMM_VERS = 2.0
CREATION_DATE  = 
ORIGINATOR     = 

OBJECT_NAME    = COSMOS 2228
OBJECT_ID      = 1992-094A
CENTER_NAME    = EARTH
REF_FRAME      = TEME
TIME_SYSTEM    = UTC
MEAN_ELEMENT_THEORY = SGP/SGP4

EPOCH          = 2025-10-31T05:36:48.945312
MEAN_MOTION    = 14.96444961
ECCENTRICITY   = .00185952
INCLINATION    = 82.5209
RA_OF_ASC_NODE = 1.1963
ARG_OF_PERICENTER = 22.6843
MEAN_ANOMALY   = 337.5197

EPHEMERIS_TYPE = 0
CLASSIFICATION_TYPE = U
NORAD_CAT_ID   = 22286
ELEMENT_SET_NO = 999
REV_AT_EPOCH   = 75669
BSTAR          = .30489263E-3
MEAN_MOTION_DOT = .3495E-4
MEAN_MOTION_DDOT = 0

CCSDS_OMM_VERS = 2.0
CREATION_DATE  = 
ORIGINATOR     = 

OBJECT_NAME    = SL-16 R/B
OBJECT_ID      = 1993-016B
CENTER_NAME    = EARTH
REF_FRAME      = TEME
TIME_SYSTEM    = UTC
MEAN_ELEMENT_THEORY = SGP/SGP4

EPOCH          = 2025-10-30T22:40:28.762176
MEAN_MOTION    = 14.15279671
ECCENTRICITY   = .00096735
INCLINATION    = 71.0054
RA_OF_ASC_NODE = 127.6829
ARG_OF_PERICENTER = 174.2983
MEAN_ANOMALY   = 185.8252

EPHEMERIS_TYPE = 0
CLASSIFICATION_TYPE = U
NORAD_CAT_ID   = 22566
ELEMENT_SET_NO = 999
REV_AT_EPOCH   = 68381
BSTAR          = -.53660301E-4
MEAN_MOTION_DOT = -.152E-5
MEAN_MOTION_DDOT = 0

CCSDS_OMM_VERS = 2.0
CREATION_DATE  = 
ORIGINATOR     = 

OBJECT_NAME    = COSMOS 2242
OBJECT_ID      = 1993-024A
CENTER_NAME    = EARTH
REF_FRAME      = TEME
TIME_SYSTEM    = UTC
MEAN_ELEMENT_THEORY = SGP/SGP4

EPOCH          = 2025-10-31T07:06:04.183200
MEAN_MOTION    = 14.95844181
ECCENTRICITY   = .00169966
INCLINATION    = 82.5218
RA_OF_ASC_NODE = 30.3967
ARG_OF_PERICENTER = 25.2798
MEAN_ANOMALY   = 334.9252

EPHEMERIS_TYPE = 0
CLASSIFICATION_TYPE = U
NORAD_CAT_ID   = 22626
ELEMENT_SET_NO = 999
REV_AT_EPOCH   = 76104
BSTAR          = .2534035E-3
MEAN_MOTION_DOT = .2863E-4
MEAN_MOTION_DDOT = 0

CCSDS_OMM_VERS = 2.0
CREATION_DATE  = 
ORIGINATOR     = 

OBJECT_NAME    = SL-16 R/B
OBJECT_ID      = 1993-059B
CENTER_NAME    = EARTH
REF_FRAME      = TEME
TIME_SYSTEM    = UTC
MEAN_ELEMENT_THEORY = SGP/SGP4

EPOCH          = 2025-10-31T07:29:30.670656
MEAN_MOTION    = 14.17202710
ECCENTRICITY   = .00154989
INCLINATION    = 70.9893
RA_OF_ASC_NODE = 283.9529
ARG_OF_PERICENTER = 41.0314
MEAN_ANOMALY   = 319.1972

EPHEMERIS_TYPE = 0
CLASSIFICATION_TYPE = U
NORAD_CAT_ID   = 22803
ELEMENT_SET_NO = 999
REV_AT_EPOCH   = 66120
BSTAR          = -.23267012E-4
MEAN_MOTION_DOT = -.95E-6
MEAN_MOTION_DDOT = 0

CCSDS_OMM_VERS = 2.0
CREATION_DATE  = 
ORIGINATOR     = 

OBJECT_NAME    = ARIANE 40 R/B
OBJECT_ID      = 1993-061H
CENTER_NAME    = EARTH
REF_FRAME      = TEME
TIME_SYSTEM    = UTC
MEAN_ELEMENT_THEORY = SGP/SGP4

EPOCH          = 2025-10-31T03:48:52.570656
MEAN_MOTION    = 14.32760915
ECCENTRICITY   = .00097667
INCLINATION    = 98.5127
RA_OF_ASC_NODE = 10.4535
ARG_OF_PERICENTER = 311.4293
MEAN_ANOMALY   = 48.6052

EPHEMERIS_TYPE = 0
CLASSIFICATION_TYPE = U
NORAD_CAT_ID   = 22830
ELEMENT_SET_NO = 999
REV_AT_EPOCH   = 67555
BSTAR          = .13482825E-3
MEAN_MOTION_DOT = .324E-5
MEAN_MOTION_DDOT = 0

CCSDS_OMM_VERS = 2.0
CREATION_DATE  = 
ORIGINATOR     = 

OBJECT_NAME    = COSMOS 2278
OBJECT_ID      = 1994-023A
CENTER_NAME    = EARTH
REF_FRAME      = TEME
TIME_SYSTEM    = UTC
MEAN_ELEMENT_THEORY = SGP/SGP4

EPOCH          = 2025-10-30T21:19:23.035584
MEAN_MOTION    = 14.14330966
ECCENTRICITY   = .00106394
INCLINATION    = 71.0516
RA_OF_ASC_NODE = 86.6581
ARG_OF_PERICENTER = 235.3615
MEAN_ANOMALY   = 124.6505

EPHEMERIS_TYPE = 0
CLASSIFICATION_TYPE = U
NORAD_CAT_ID   = 23087
ELEMENT_SET_NO = 999
REV_AT_EPOCH   = 62645
BSTAR          = .1697317E-5
MEAN_MOTION_DOT = -.44E-6
MEAN_MOTION_DDOT = 0

CCSDS_OMM_VERS = 2.0
CREATION_DATE  = 
ORIGINATOR     = 

OBJECT_NAME    = SL-16 R/B
OBJECT_ID      = 1994-023B
CENTER_NAME    = EARTH
REF_FRAME      = TEME
TIME_SYSTEM    = UTC
MEAN_ELEMENT_THEORY = SGP/SGP4

EPOCH          = 2025-10-31T06:39:08.014176
MEAN_MOTION    = 14.14991715
ECCENTRICITY   = .00021832
INCLINATION    = 71.0014
RA_OF_ASC_NODE = 342.6618
ARG_OF_PERICENTER = 180.4469
MEAN_ANOMALY   = 179.6653

EPHEMERIS_TYPE = 0
CLASSIFICATION_TYPE = U
NORAD_CAT_ID   = 23088
ELEMENT_SET_NO = 999
REV_AT_EPOCH   = 62778
BSTAR          = .9568028E-4
MEAN_MOTION_DOT = .138E-5
MEAN_MOTION_DDOT = 0

CCSDS_OMM_VERS = 2.0
CREATION_DATE  = 
ORIGINATOR     = 

OBJECT_NAME    = SL-16 R/B
OBJECT_ID      = 1994-074B
CENTER_NAME    = EARTH
REF_FRAME      = TEME
TIME_SYSTEM    = UTC
MEAN_ELEMENT_THEORY = SGP/SGP4

EPOCH          = 2025-10-31T01:23:51.384768
MEAN_MOTION    = 14.79215132
ECCENTRICITY   = .00051798
INCLINATION    = 97.7262
RA_OF_ASC_NODE = 335.0473
ARG_OF_PERICENTER = 287.7156
MEAN_ANOMALY   = 125.4341

EPHEMERIS_TYPE = 0
CLASSIFICATION_TYPE = U
NORAD_CAT_ID   = 23343
ELEMENT_SET_NO = 999
REV_AT_EPOCH   = 66808
BSTAR          = .10123854E-3
MEAN_MOTION_DOT = .702E-5
MEAN_MOTION_DDOT = 0

CCSDS_OMM_VERS = 2.0
CREATION_DATE  = 
ORIGINATOR     = 

OBJECT_NAME    = SL-16 R/B
OBJECT_ID      = 1994-077B
CENTER_NAME    = EARTH
REF_FRAME      = TEME
TIME_SYSTEM    = UTC
MEAN_ELEMENT_THEORY = SGP/SGP4

EPOCH          = 2025-10-31T07:25:17.904864
MEAN_MOTION    = 14.15538240
ECCENTRICITY   = .00034588
INCLINATION    = 70.9815
RA_OF_ASC_NODE = 264.6739
ARG_OF_PERICENTER = 317.7170
MEAN_ANOMALY   = 42.3686

EPHEMERIS_TYPE = 0
CLASSIFICATION_TYPE = U
NORAD_CAT_ID   = 23405
ELEMENT_SET_NO = 999
REV_AT_EPOCH   = 59792
BSTAR          = -.18490713E-4
MEAN_MOTION_DOT = -.84E-6
MEAN_MOTION_DDOT = 0

CCSDS_OMM_VERS = 2.0
CREATION_DATE  = 
ORIGINATOR     = 

OBJECT_NAME    = ARIANE 40+ R/B
OBJECT_ID      = 1995-021B
CENTER_NAME    = EARTH
REF_FRAME      = TEME
TIME_SYSTEM    = UTC
MEAN_ELEMENT_THEORY = SGP/SGP4

EPOCH          = 2025-10-31T04:51:22.501728
MEAN_MOTION    = 14.39644540
ECCENTRICITY   = .00071666
INCLINATION    = 98.4700
RA_OF_ASC_NODE = 12.2955
ARG_OF_PERICENTER = 161.5084
MEAN_ANOMALY   = 259.9619

EPHEMERIS_TYPE = 0
CLASSIFICATION_TYPE = U
NORAD_CAT_ID   = 23561
ELEMENT_SET_NO = 999
REV_AT_EPOCH   = 60061
BSTAR          = .15075074E-3
MEAN_MOTION_DOT = .428E-5
MEAN_MOTION_DDOT = 0

CCSDS_OMM_VERS = 2.0
CREATION_DATE  = 
ORIGINATOR     = 

OBJECT_NAME    = SL-16 R/B
OBJECT_ID      = 1995-058B
CENTER_NAME    = EARTH
REF_FRAME      = TEME
TIME_SYSTEM    = UTC
MEAN_ELEMENT_THEORY = SGP/SGP4

EPOCH          = 2025-10-30T19:33:47.765952
MEAN_MOTION    = 14.15470295
ECCENTRICITY   = .00141189
INCLINATION    = 71.0197
RA_OF_ASC_NODE = 92.9204
ARG_OF_PERICENTER = 311.1636
MEAN_ANOMALY   = 48.8269

EPHEMERIS_TYPE = 0
CLASSIFICATION_TYPE = U
NORAD_CAT_ID   = 23705
ELEMENT_SET_NO = 999
REV_AT_EPOCH   = 54947
BSTAR          = .19963491E-3
MEAN_MOTION_DOT = .343E-5
MEAN_MOTION_DDOT = 0

